ONEWEB-0116             
1 48046U 21025E   25334.98870689  .00000348  00000+0  91839-3 0  9991
2 48046  87.8992 359.6030 0001870  96.0774 264.0568 13.13469978227634
ONEWEB-0150             
1 48047U 21025F   25334.58411046  .00000110  00000+0  26669-3 0  9992
2 48047  87.8997 359.6787 0001586  96.6762 263.4548 13.13470610227474
ONEWEB-0107             
1 48048U 21025G   25334.81434437  .00000087  00000+0  20315-3 0  9993
2 48048  87.8995 359.6297 0001587  86.6302 273.5009 13.13470363227489
ONEWEB-0101             
1 48049U 21025H   25335.00563029  .00000105  00000+0  25318-3 0  9995
2 48049  87.8986 359.6258 0001783  88.3918 271.7415 13.13470243227485
ONEWEB-0113             
1 48050U 21025J   25334.79808108 -.00000188  00000+0 -54474-3 0  9990
2 48050  87.8992 359.5974 0001784 102.1835 257.9494 13.13984396227552
ONEWEB-0112             
1 48051U 21025K   25334.97177631  .00000182  00000+0  46449-3 0  9996
2 48051  87.8996 359.5955 0001692  94.6931 265.4391 13.13470809227577
ONEWEB-0156             
1 48052U 21025L   25334.98023722  .00000332  00000+0  87376-3 0  9990
2 48052  87.8994 359.6056 0001626  91.8860 268.2455 13.13470282227551
ONEWEB-0161             
1 48053U 21025M   25334.80248536 -.00000119  00000+0 -35969-3 0  9990
2 48053  87.8987 359.6569 0001600  90.0528 270.0784 13.13470082227461
